      2.10          N: GNSS NAV DATA                        RINEX VERSION / TYPE
fic2rin                                 10/01/2021 00:17:33 PGM / RUN BY / DATE
                                                            END OF HEADER
 1 21  9 30 10  0  0.0 5.528447218239e-04-1.091393642128e-11 0.000000000000e+00
    9.500000000000e+01-2.121875000000e+01 4.241605251313e-09 1.299553136679e+00
   -1.059845089912e-06 1.105982693844e-02 3.900378942490e-06 5.153676540375e+03
    3.816000000000e+05-2.104789018631e-07 5.913929034197e-01 1.527369022369e-07
    9.857081350889e-01 3.191875000000e+02 8.891210974511e-01-8.216413675181e-09
   -1.571494030463e-11 1.000000000000e+00 2.177000000000e+03 0.000000000000e+00
    2.400000000000e+00 0.000000000000e+00 5.122274160385e-09 9.500000000000e+01
    3.744000000000e+05 4.000000000000e+00
 3 21  9 30 10  0  0.0-3.076288849115e-04-1.386979420204e-11 0.000000000000e+00
    2.000000000000e+01-8.653125000000e+01 4.297321857847e-09 1.642013542969e-01
   -4.500150680542e-06 3.896735375747e-03 7.526949048042e-06 5.153766649246e+03
    3.816000000000e+05-2.421438694000e-08 1.627950817223e+00 5.960464477539e-08
    9.704900317538e-01 2.375937500000e+02 9.890696209369e-01-8.000333245992e-09
   -8.786080261224e-11 1.000000000000e+00 2.177000000000e+03 0.000000000000e+00
    2.400000000000e+00 0.000000000000e+00 1.862645149231e-09 2.000000000000e+01
    3.744000000000e+05 4.000000000000e+00
12 21  9 30 10  0  0.0-1.047360710800e-04-5.456968210638e-12 0.000000000000e+00
    3.000000000000e+01 2.950000000000e+01 4.298750488784e-09-3.998645480777e-02
    1.406297087669e-06 8.257460664026e-03 8.197501301765e-06 5.153673553467e+03
    3.816000000000e+05-1.173466444016e-07-1.442158786034e+00 1.508742570877e-07
    9.717466856985e-01 2.329375000000e+02 1.231573206070e+00-7.984618305688e-09
   -2.257236880119e-10 1.000000000000e+00 2.177000000000e+03 0.000000000000e+00
    2.400000000000e+00 0.000000000000e+00-1.257285475731e-08 3.000000000000e+01
    3.744000000000e+05 4.000000000000e+00
 8 21  9 30 10  0  0.0-3.836071118712e-05-1.364242052659e-12 0.000000000000e+00
    2.300000000000e+01 6.993750000000e+01 4.328037422988e-09-2.650645750652e+00
    3.637745976448e-06 6.535452674143e-03 6.726011633873e-06 5.153662378311e+03
    3.816000000000e+05-8.940696716309e-08-4.851264668475e-01-3.166496753693e-08
    9.663369887287e-01 2.566875000000e+02 5.367754815962e-02-7.919258440330e-09
    1.014327965117e-10 1.000000000000e+00 2.177000000000e+03 0.000000000000e+00
    2.400000000000e+00 0.000000000000e+00 5.122274160385e-09 2.300000000000e+01
    3.744000000000e+05 4.000000000000e+00
 6 21  9 30 10  0  0.0 8.467072620988e-05 7.844391802792e-12 0.000000000000e+00
    1.300000000000e+01-1.246875000000e+01 4.141601085738e-09 1.653288795349e+00
   -6.537884473801e-07 2.217344241217e-03 3.445893526077e-06 5.153587036133e+03
    3.816000000000e+05 0.000000000000e+00 5.831417133702e-01-2.048909664154e-08
    9.851336061975e-01 3.233437500000e+02-1.022158345318e+00-8.049263855577e-09
    3.928735076157e-12 1.000000000000e+00 2.177000000000e+03 0.000000000000e+00
    2.400000000000e+00 0.000000000000e+00 3.725290298462e-09 1.300000000000e+01
    3.744000000000e+05 4.000000000000e+00
 5 21  9 30 10  0  0.0-5.609821528196e-05-1.250555214938e-12 0.000000000000e+00
    4.400000000000e+01-8.575000000000e+01 4.575190575052e-09-2.368799499996e+00
   -4.434958100319e-06 6.093837320805e-03 6.271526217461e-06 5.153595298767e+03
    3.816000000000e+05 8.568167686462e-08 1.589400049737e+00-1.490116119385e-08
    9.574660348978e-01 2.568125000000e+02 1.000199797193e+00-8.018191132702e-09
   -2.642967233051e-11 1.000000000000e+00 2.177000000000e+03 0.000000000000e+00
    2.400000000000e+00 0.000000000000e+00-1.117587089539e-08 4.400000000000e+01
    3.744000000000e+05 4.000000000000e+00
 7 21  9 30 10  0  0.0 2.544042654335e-04 6.707523425575e-12 0.000000000000e+00
    6.400000000000e+01 2.315625000000e+01 4.888417907942e-09 6.793737183452e-01
    1.339241862297e-06 1.528321718797e-02 6.992369890213e-06 5.153728548050e+03
    3.816000000000e+05-2.495944499969e-07-2.554137590631e+00 1.657754182816e-07
    9.515176607699e-01 2.422500000000e+02-2.304558077020e+00-8.268201546639e-09
   -1.360770967287e-10 1.000000000000e+00 2.177000000000e+03 0.000000000000e+00
    2.400000000000e+00 0.000000000000e+00-1.117587089539e-08 6.400000000000e+01
    3.744000000000e+05 4.000000000000e+00
 4 21  9 30 10  0  0.0-2.040904946625e-04 2.273736754432e-13 0.000000000000e+00
    2.230000000000e+02-1.537500000000e+01 4.485901141503e-09 3.097280227137e+00
   -8.400529623032e-07 1.410822849721e-03 9.262934327126e-06 5.153689327240e+03
    3.816000000000e+05-5.587935447693e-09 2.709087290074e+00 3.166496753693e-08
    9.610303470229e-01 2.009062500000e+02-3.083095944601e+00-7.841398054275e-09
    2.142946405177e-10 1.000000000000e+00 2.177000000000e+03 0.000000000000e+00
    2.400000000000e+00 0.000000000000e+00-4.190951585770e-09 7.350000000000e+02
    3.744000000000e+05 4.000000000000e+00
 9 21  9 30 10  0  0.0-3.615226596594e-04-2.273736754432e-13 0.000000000000e+00
    8.800000000000e+01-2.218750000000e+01 4.589476884420e-09-2.314589790515e+00
   -1.169741153717e-06 2.214594045654e-03 9.192153811455e-06 5.153700084686e+03
    3.816000000000e+05 5.774199962616e-08 2.657260707792e+00 3.725290298462e-08
    9.539227741639e-01 1.998750000000e+02 1.810652196978e+00-7.876756669960e-09
    1.835790753768e-10 1.000000000000e+00 2.177000000000e+03 0.000000000000e+00
    3.400000000000e+00 0.000000000000e+00 1.396983861923e-09 8.800000000000e+01
    3.744000000000e+05 4.000000000000e+00
11 21  9 30 10  0  0.0 2.051284536719e-05 1.477928890381e-12 0.000000000000e+00
    2.100000000000e+01-1.571875000000e+01 4.651622330170e-09-2.110563167188e+00
   -8.307397365570e-07 4.685340682045e-04 3.250315785408e-06 5.153710281372e+03
    3.816000000000e+05-2.421438694000e-08 6.383701785203e-01 5.215406417847e-08
    9.606953812073e-01 3.170625000000e+02 2.186966578633e+00-8.297131323109e-09
    2.500104139373e-11 1.000000000000e+00 2.177000000000e+03 0.000000000000e+00
    1.536000000000e+03 6.300000000000e+01-8.381903171539e-09 2.770000000000e+02
    3.744000000000e+05 4.000000000000e+00
32 21  9 30 10  0  0.0-5.341600626707e-06-3.751665644813e-12 0.000000000000e+00
    1.400000000000e+01-1.315625000000e+01 4.429113061766e-09-2.020987967587e+00
   -5.867332220078e-07 5.099790403619e-03 9.410083293915e-06 5.153721933365e+03
    3.816000000000e+05-2.235174179077e-08 2.667840234369e+00-1.247972249985e-07
    9.578466613124e-01 1.990000000000e+02-2.379384708547e+00-7.763537668220e-09
    2.235807416067e-10 1.000000000000e+00 2.177000000000e+03 0.000000000000e+00
    2.400000000000e+00 0.000000000000e+00 4.656612873077e-10 1.400000000000e+01
    3.744000000000e+05 4.000000000000e+00
25 21  9 30 10  0  0.0 2.167196944356e-04 6.252776074689e-12 0.000000000000e+00
    1.800000000000e+01 2.409375000000e+01 4.654479592043e-09-1.929476857770e-01
    1.328065991402e-06 9.841863880865e-03 7.845461368561e-06 5.153773929596e+03
    3.816000000000e+05 3.725290298462e-09-1.517247069236e+00 1.788139343262e-07
    9.591320016177e-01 2.330000000000e+02 9.650083065494e-01-8.199270103939e-09
   -2.175090601254e-10 1.000000000000e+00 2.177000000000e+03 0.000000000000e+00
    2.400000000000e+00 0.000000000000e+00 5.587935447693e-09 1.800000000000e+01
    3.744000000000e+05 4.000000000000e+00
15 21  9 30 10  0  0.0-1.174011267722e-04 2.728484105319e-12 0.000000000000e+00
    1.070000000000e+02-3.534375000000e+01 5.010923010771e-09 2.634007000256e+00
   -1.922249794006e-06 1.373543264344e-02 9.177252650261e-06 5.153685197830e+03
    3.816000000000e+05 1.061707735062e-07 2.554895527025e+00-1.844018697739e-07
    9.296058177679e-01 1.840312500000e+02 1.033183637663e+00-7.958188633357e-09
    1.600066649198e-10 1.000000000000e+00 2.177000000000e+03 0.000000000000e+00
    2.400000000000e+00 0.000000000000e+00-1.071020960808e-08 1.070000000000e+02
    3.744000000000e+05 4.000000000000e+00
31 21  9 30 10  0  0.0-1.424686051905e-04-2.046363078989e-12 0.000000000000e+00
    8.800000000000e+01 2.065625000000e+01 4.755198073087e-09 2.277395759589e-01
    1.214444637299e-06 1.021334191319e-02 6.560236215591e-06 5.153613386154e+03
    3.816000000000e+05 1.210719347000e-07-2.536587307683e+00 1.005828380585e-07
    9.557862377504e-01 2.481562500000e+02 3.014677491132e-01-8.228199880409e-09
   -1.107188976008e-11 1.000000000000e+00 2.177000000000e+03 0.000000000000e+00
    2.400000000000e+00 0.000000000000e+00-1.303851604462e-08 8.800000000000e+01
    3.744000000000e+05 4.000000000000e+00
29 21  9 30 10  0  0.0-4.193391650915e-04-5.570655048359e-12 0.000000000000e+00
    5.700000000000e+01 5.734375000000e+01 4.017667351972e-09-2.738450851561e+00
    3.116205334663e-06 1.921657356434e-03 6.729736924171e-06 5.153578025818e+03
    3.816000000000e+05-3.911554813385e-08-3.926100324123e-01 2.793967723846e-08
    9.832644299160e-01 2.628750000000e+02 2.362273448777e+00-7.814968381945e-09
    1.260766801712e-10 1.000000000000e+00 2.177000000000e+03 0.000000000000e+00
    2.400000000000e+00 0.000000000000e+00-1.024454832077e-08 5.700000000000e+01
    3.744000000000e+05 4.000000000000e+00
19 21  9 30 10  0  0.0 5.966378375888e-05 5.002220859751e-12 0.000000000000e+00
    1.070000000000e+02 6.150000000000e+01 4.110885520597e-09-3.405828021379e-01
    3.183260560036e-06 9.068724350072e-03 6.709247827530e-06 5.153658327103e+03
    3.816000000000e+05-1.061707735062e-07-3.603219177456e-01-7.264316082001e-08
    9.799830125003e-01 2.620625000000e+02 1.951928814516e+00-8.074264896971e-09
    1.528635102359e-10 1.000000000000e+00 2.177000000000e+03 0.000000000000e+00
    3.400000000000e+00 0.000000000000e+00-1.536682248116e-08 1.070000000000e+02
    3.744000000000e+05 4.000000000000e+00
